$$SOE
2461302.500000000, A.D. 2026-Sep-19 00:00:00.0000, -1.245505381667901E+08, -4.123709666790128E+08, 8.700244322385088E+07,
2461309.500000000, A.D. 2026-Sep-26 00:00:00.0000, -1.141145496643184E+08, -4.148044912693931E+08, 8.666209171504222E+07,
2461316.500000000, A.D. 2026-Oct-03 00:00:00.0000, -1.036130120861715E+08, -4.169998042038398E+08, 8.627196634360178E+07,
2461323.500000000, A.D. 2026-Oct-10 00:00:00.0000, -9.305171184499556E+07, -4.189546594968579E+08, 8.583208690341561E+07,
2461330.500000000, A.D. 2026-Oct-17 00:00:00.0000, -8.243652171877776E+07, -4.206669509519777E+08, 8.534250603854115E+07,
2461337.500000000, A.D. 2026-Oct-24 00:00:00.0000, -7.177339727258827E+07, -4.221347161314230E+08, 8.480330970387879E+07,
2461344.500000000, A.D. 2026-Oct-31 00:00:00.0000, -6.106837299254980E+07, -4.233561404053246E+08, 8.421461757288270E+07,
2461351.500000000, A.D. 2026-Nov-07 00:00:00.0000, -5.032755779422146E+07, -4.243295609960127E+08, 8.357658336571820E+07,
2461358.500000000, A.D. 2026-Nov-14 00:00:00.0000, -3.955712970656119E+07, -4.250534701191665E+08, 8.288939515035348E+07,
2461365.500000000, A.D. 2026-Nov-21 00:00:00.0000, -2.876333154588595E+07, -4.255265165283015E+08, 8.215327583661942E+07,
2461372.500000000, A.D. 2026-Nov-28 00:00:00.0000, -1.795246858058162E+07, -4.257475084582705E+08, 8.136848370679963E+07,
2461379.500000000, A.D. 2026-Dec-05 00:00:00.0000, -7.130904569762560E+06, -4.257154186129076E+08, 8.053531259542874E+07,
2461386.500000000, A.D. 2026-Dec-12 00:00:00.0000, 3.694943984913473E+06, -4.254293880758951E+08, 7.965409195637222E+07,
2461393.500000000, A.D. 2026-Dec-19 00:00:00.0000, 1.451861348154902E+07, -4.248887291279740E+08, 7.872518698969389E+07,
2461400.500000000, A.D. 2026-Dec-26 00:00:00.0000, 2.533359860580934E+07, -4.240929278275969E+08, 7.774899876910099E+07,
2461407.500000000, A.D. 2027-Jan-02 00:00:00.0000, 3.613335773293081E+07, -4.230416465349816E+08, 7.672596432762404E+07,
2461414.500000000, A.D. 2027-Jan-09 00:00:00.0000, 4.691131845278552E+07, -4.217347263484962E+08, 7.565655669090894E+07,
2461421.500000000, A.D. 2027-Jan-16 00:00:00.0000, 5.766088324447384E+07, -4.201721894339030E+08, 7.454128485405421E+07,
2461428.500000000, A.D. 2027-Jan-23 00:00:00.0000, 6.837543533688842E+07, -4.183542412762224E+08, 7.338069369327641E+07,
2461435.500000000, A.D. 2027-Jan-30 00:00:00.0000, 7.904834493246110E+07, -4.162812728931830E+08, 7.217536379044518E+07,
2461442.500000000, A.D. 2027-Feb-06 00:00:00.0000, 8.967297620712517E+07, -4.139538626621882E+08, 7.092591115872653E+07,
2461449.500000000, A.D. 2027-Feb-13 00:00:00.0000, 1.002426946133876E+08, -4.113727765333260E+08, 6.963298701059365E+07,
2461456.500000000, A.D. 2027-Feb-20 00:00:00.0000, 1.107508721092108E+08, -4.085389674109870E+08, 6.829727771936037E+07,
2461463.500000000, A.D. 2027-Feb-27 00:00:00.0000, 1.211908916957820E+08, -4.054535769089641E+08, 6.691950458239053E+07,
2461470.500000000, A.D. 2027-Mar-06 00:00:00.0000, 1.315561542702221E+08, -4.021179375497084E+08, 6.550042326584065E+07,
2461477.500000000, A.D. 2027-Mar-13 00:00:00.0000, 1.418400861801765E+08, -3.985335733536327E+08, 6.404082324544586E+07,
2461484.500000000, A.D. 2027-Mar-20 00:00:00.0000, 1.520361463368462E+08, -3.947021996488935E+08, 6.254152727901568E+07,
2461491.500000000, A.D. 2027-Mar-27 00:00:00.0000, 1.621378330734740E+08, -3.906257226465880E+08, 6.100339084746991E+07,
2461498.500000000, A.D. 2027-Apr-03 00:00:00.0000, 1.721386909361421E+08, -3.863062388251820E+08, 5.942730154195854E+07,
2461505.500000000, A.D. 2027-Apr-10 00:00:00.0000, 1.820323174513356E+08, -3.817460340966861E+08, 5.781417839305103E+07,
2461512.500000000, A.D. 2027-Apr-17 00:00:00.0000, 1.918123698759921E+08, -3.769475827638581E+08, 5.616497113829908E+07,
2461519.500000000, A.D. 2027-Apr-24 00:00:00.0000, 2.014725719947418E+08, -3.719135463262365E+08, 5.448065941579548E+07,
2461526.500000000, A.D. 2027-May-01 00:00:00.0000, 2.110067212513535E+08, -3.666467721058197E+08, 5.276225185977423E+07,
2461533.500000000, A.D. 2027-May-08 00:00:00.0000, 2.204086965092072E+08, -3.611502909466687E+08, 5.101078513373791E+07,
2461540.500000000, A.D. 2027-May-15 00:00:00.0000, 2.296724649293591E+08, -3.554273130400938E+08, 4.922732311911358E+07,
2461547.500000000, A.D. 2027-May-22 00:00:00.0000, 2.387920863855663E+08, -3.494812244713160E+08, 4.741295619311434E+07,
2461554.500000000, A.D. 2027-May-29 00:00:00.0000, 2.477617187555406E+08, -3.433155859587578E+08, 4.556880016956274E+07,
2461561.500000000, A.D. 2027-Jun-05 00:00:00.0000, 2.565756249581338E+08, -3.369341306584153E+08, 4.369599507944569E+07,
2461568.500000000, A.D. 2027-Jun-12 00:00:00.0000, 2.652281797141610E+08, -3.303407606073198E+08, 4.179570401294042E+07,
2461575.500000000, A.D. 2027-Jun-19 00:00:00.0000, 2.737138756851634E+08, -3.235395427474272E+08, 3.986911197923538E+07,
2461582.500000000, A.D. 2027-Jun-26 00:00:00.0000, 2.820273292553931E+08, -3.165347047982972E+08, 3.791742473968966E+07,
2461589.500000000, A.D. 2027-Jul-03 00:00:00.0000, 2.901632860755944E+08, -3.093306309783704E+08, 3.594186760562837E+07,
2461596.500000000, A.D. 2027-Jul-10 00:00:00.0000, 2.981166263921883E+08, -3.019318575752867E+08, 3.394368420096867E+07,
2461603.500000000, A.D. 2027-Jul-17 00:00:00.0000, 3.058823701850709E+08, -2.943430684138800E+08, 3.192413518599920E+07,
2461610.500000000, A.D. 2027-Jul-24 00:00:00.0000, 3.134556822578393E+08, -2.865690902945300E+08, 2.988449692562719E+07,
2461617.500000000, A.D. 2027-Jul-31 00:00:00.0000, 3.208318776808293E+08, -2.786148881768761E+08, 2.782606008669180E+07,
2461624.500000000, A.D. 2027-Aug-07 00:00:00.0000, 3.280064273767540E+08, -2.704855589697951E+08, 2.575012828040414E+07,
2461631.500000000, A.D. 2027-Aug-14 00:00:00.0000, 3.349749615378467E+08, -2.621863241951743E+08, 2.365801694364326E+07,
2461638.500000000, A.D. 2027-Aug-21 00:00:00.0000, 3.417332714813979E+08, -2.537225249022677E+08, 2.155105213017489E+07,
2461645.500000000, A.D. 2027-Aug-28 00:00:00.0000, 3.482773133651301E+08, -2.450996176403277E+08, 1.943056899812394E+07,
2461652.500000000, A.D. 2027-Sep-04 00:00:00.0000, 3.546032125749381E+08, -2.363231689996062E+08, 1.729791030973704E+07,
2461659.500000000, A.D. 2027-Sep-11 00:00:00.0000, 3.607072673849570E+08, -2.273988493961570E+08, 1.515442502071984E+07,
2461666.500000000, A.D. 2027-Sep-18 00:00:00.0000, 3.665859520192134E+08, -2.183324267654289E+08, 1.300146689703384E+07,
2461673.500000000, A.D. 2027-Sep-25 00:00:00.0000, 3.722359193406191E+08, -2.091297602575233E+08, 1.084039313491626E+07,
2461680.500000000, A.D. 2027-Oct-02 00:00:00.0000, 3.776540032400004E+08, -1.997967939221734E+08, 8.672562982450977E+06,
2461687.500000000, A.D. 2027-Oct-09 00:00:00.0000, 3.828372207457895E+08, -1.903395504037721E+08, 6.499336363055140E+06,
2461694.500000000, A.D. 2027-Oct-16 00:00:00.0000, 3.877827739158446E+08, -1.807641247169763E+08, 4.322072493193932E+06,
2461701.500000000, A.D. 2027-Oct-23 00:00:00.0000, 3.924880517696318E+08, -1.710766781231683E+08, 2.142128472442828E+06,
2461708.500000000, A.D. 2027-Oct-30 00:00:00.0000, 3.969506326355785E+08, -1.612834315106664E+08, -3.914213604477048E+04,
2461715.500000000, A.D. 2027-Nov-06 00:00:00.0000, 4.011682857538131E+08, -1.513906571646316E+08, -2.220390532917149E+06,
2461722.500000000, A.D. 2027-Nov-13 00:00:00.0000, 4.051389701531709E+08, -1.414046710191176E+08, -4.400273702827334E+06,
2461729.500000000, A.D. 2027-Nov-20 00:00:00.0000, 4.088608337062194E+08, -1.313318275919849E+08, -6.577455670126498E+06,
2461736.500000000, A.D. 2027-Nov-27 00:00:00.0000, 4.123322139828548E+08, -1.211785146508422E+08, -8.750608893987723E+06,
2461743.500000000, A.D. 2027-Dec-04 00:00:00.0000, 4.155516388846569E+08, -1.109511467093093E+08, -1.091841554044915E+07,
2461750.500000000, A.D. 2027-Dec-11 00:00:00.0000, 4.185178265156700E+08, -1.006561583315348E+08, -1.307956865761861E+07,
2461757.500000000, A.D. 2027-Dec-18 00:00:00.0000, 4.212296845701296E+08, -9.029999759767957E+07, -1.523277330512645E+07,
2461764.500000000, A.D. 2027-Dec-25 00:00:00.0000, 4.236863093940234E+08, -7.988911974493149E+07, -1.737674765020106E+07,
2461771.500000000, A.D. 2028-Jan-01 00:00:00.0000, 4.258869847670668E+08, -6.942998098003781E+07, -1.951022403123030E+07,
$$EOE